[{"OBJECT_NAME":"STARLINK-3375","OBJECT_ID":"2022-005L","EPOCH":"2026-03-09T21:43:23.279520","MEAN_MOTION":15.08841424,"ECCENTRICITY":0.00015346,"INCLINATION":53.2172,"RA_OF_ASC_NODE":288.1504,"ARG_OF_PERICENTER":98.5978,"MEAN_ANOMALY":261.5188,"EPHEMERIS_TYPE":0,"CLASSIFICATION_TYPE":"U","NORAD_CAT_ID":51114,"ELEMENT_SET_NO":999,"REV_AT_EPOCH":22891,"BSTAR":-9.6287314e-5,"MEAN_MOTION_DOT":-1.82e-5,"MEAN_MOTION_DDOT":0},{"OBJECT_NAME":"LEMUR-2-LANGER2SPACE","OBJECT_ID":"2025-061H","EPOCH":"2026-03-09T22:29:21.653952","MEAN_MOTION":15.13463796,"ECCENTRICITY":0.00153346,"INCLINATION":97.5541,"RA_OF_ASC_NODE":45.3892,"ARG_OF_PERICENTER":237.418,"MEAN_ANOMALY":122.5571,"EPHEMERIS_TYPE":0,"CLASSIFICATION_TYPE":"U","NORAD_CAT_ID":63358,"ELEMENT_SET_NO":999,"REV_AT_EPOCH":5260,"BSTAR":0.00035148431,"MEAN_MOTION_DOT":6.238e-5,"MEAN_MOTION_DDOT":0}]
